{
  "norad_id": 32404,
  "name": "THURAYA-3",
  "history": [
    {
      "epoch": "2026-03-28T20:23:10.871232",
      "apogee_km": 35795.891745512876,
      "perigee_km": 35776.04341492279,
      "latitude_deg": -4.496257816745102,
      "longitude_deg": 21.945412480039522,
      "semi_major_axis_km": 42164.104580217834,
      "eccentricity": 0.00023537,
      "inclination_deg": 5.8558,
      "raan_deg": 35.6558,
      "arg_perigee_deg": 320.3572,
      "mean_anomaly_deg": 234.5066,
      "mean_motion_rev_day": 1.00274023
    }
  ]
}